OBJECT_NAME,OBJECT_ID,EPOCH,MEAN_MOTION,ECCENTRICITY,INCLINATION,RA_OF_ASC_NODE,ARG_OF_PERICENTER,MEAN_ANOMALY,EPHEMERIS_TYPE,CLASSIFICATION_TYPE,NORAD_CAT_ID,ELEMENT_SET_NO,REV_AT_EPOCH,BSTAR,MEAN_MOTION_DOT,MEAN_MOTION_DDOT
COSMOS 2507 (RODNIK-S 13),2015-050A,2026-05-19T06:06:05.294880,12.42925488,.00111053,82.4903,97.6829,55.6456,304.5673,0,U,40920,999,48326,-.59222542E-3,-.72E-6,0
COSMOS 2508 (RODNIK-S 14),2015-050B,2026-05-19T06:56:48.379776,12.42913040,.00155396,82.4857,96.1770,85.6044,274.6810,0,U,40921,999,48325,.5596857E-4,.18E-6,0
COSMOS 2509 (RODNIK-S 15),2015-050C,2026-05-19T07:25:03.597024,12.42882634,.00157445,82.4864,96.2640,101.5261,258.7588,0,U,40922,999,48329,-.50105537E-4,.3E-7,0
LINGQIAO VIDEO A,2015-057B,2026-05-19T07:20:19.813632,14.77348903,.00171116,97.6616,135.5347,9.0837,351.0680,0,U,40959,999,57114,.96358351E-4,.638E-5,0
LINGQIAO VIDEO B,2015-057C,2026-05-19T06:49:43.569120,14.77452955,.00172323,97.6582,136.6859,9.1829,350.9694,0,U,40960,999,57118,.7981406E-4,.521E-5,0
JILIN-1,2015-057D,2026-05-19T05:50:12.745248,14.78106269,.00170076,97.6510,140.0489,3.4183,356.7142,0,U,40961,999,57133,.70556457E-4,.463E-5,0
FOX-1A (AO-85),2015-058D,2026-05-18T15:16:53.001984,14.90780838,.01292011,64.7765,10.8054,68.1875,293.2924,0,U,40967,999,10916,.19406215E-3,.2064E-4,0
SINOD-D 1,2015-058E,2026-05-19T04:41:25.971072,14.95660609,.01177461,64.7760,349.6876,64.7204,296.6056,0,U,40968,999,11232,.22632714E-3,.2718E-4,0
ELEKTRO-L 2,2015-074A,2026-05-19T03:56:33.652032,1.00271714,.0001534,6.6216,70.8687,255.7612,314.8480,0,U,41105,999,3821,0,-.119E-5,0
DAMPE,2015-078A,2026-05-19T06:35:55.432032,15.30704660,.001202,97.4560,144.6015,170.1955,189.9523,0,U,41173,999,58012,.28808644E-4,.778E-5,0
ORBCOMM FM114,2015-081A,2026-05-19T06:46:18.463296,14.58821342,.00014343,47.0031,138.6595,43.2553,316.8446,0,U,41179,999,55353,.63198558E-4,.127E-5,0
ORBCOMM FM110,2015-081D,2026-05-19T06:30:01.154016,14.58828800,.00039829,47.0003,138.1618,296.2680,63.7796,0,U,41182,999,55340,.11728017E-3,.383E-5,0
ORBCOMM FM112,2015-081F,2026-05-18T11:43:13.388160,14.58854175,.00024923,47.0002,50.6774,60.2081,299.9052,0,U,41184,999,55461,.10022683E-3,.302E-5,0
ORBCOMM FM113,2015-081G,2026-05-19T03:34:37.824096,14.58822164,.00010701,47.0017,47.9166,53.8354,306.2631,0,U,41185,999,55469,.74722678E-4,.182E-5,0
ORBCOMM FM108,2015-081J,2026-05-18T21:44:52.231776,14.58825037,.0001985,47.0058,320.6326,63.0108,297.0981,0,U,41187,999,55580,.10968E-3,.347E-5,0
ORBCOMM FM117,2015-081K,2026-05-18T20:55:07.453920,14.58822655,.00024459,47.0021,319.4386,71.1486,288.9665,0,U,41188,999,55584,.10378362E-3,.319E-5,0
ORBCOMM FM116,2015-081L,2026-05-19T03:01:47.015040,14.58832537,.00022124,47.0032,48.0224,294.9837,65.0819,0,U,41189,999,55469,.10473623E-3,.324E-5,0
HORYU-4,2016-012D,2026-05-19T03:00:44.795808,15.79713853,.00045679,30.9885,289.5778,77.6854,282.4315,0,U,41340,999,56619,.76965014E-3,.150174E-2,0
ZIYUAN 3-02 (ZY 3-02),2016-033A,2026-05-19T07:33:35.565408,15.21493581,.00132758,97.3837,215.6426,42.5739,317.6524,0,U,41556,999,55359,.15481285E-3,.3421E-4,0
CARTOSAT-2C,2016-040A,2026-05-19T06:40:31.812672,15.19234329,.00085893,97.4498,199.6494,228.3597,131.6903,0,U,41599,999,54932,.12188317E-3,.2501E-4,0
LAPAN-A3,2016-040E,2026-05-19T06:35:49.090272,15.32905149,.00121177,97.1488,136.3766,115.0299,245.2203,0,U,41603,999,55038,.69250818E-4,.213E-4,0
GAOFEN-3,2016-049A,2026-05-19T07:00:33.393888,14.42210755,.00009497,98.4013,147.5140,87.8626,272.2672,0,U,41727,999,51448,-.32190428E-4,-.149E-5,0
CAS-2T & KS-1Q,2016-066G,2026-05-19T03:35:33.311904,14.44599136,.03413678,98.3826,215.2153,217.5100,140.1828,0,U,41847,999,50060,.10698114E-3,.693E-5,0
YUNHAI-1 01,2016-068A,2026-05-19T07:45:20.469312,14.32716904,.00065141,98.5835,150.5983,113.2688,246.9182,0,U,41857,999,49769,.26708906E-4,.29E-6,0
RESOURCESAT-2A,2016-074A,2026-05-19T06:49:32.617056,14.21605116,.0002845,98.7532,213.0233,139.2253,220.9138,0,U,41877,999,49019,-.10143077E-3,-.267E-5,0
