COSMOS 2507 (RODNIK-S *)
1 40920U 15050A   26139.25422795 -.00000072  00000+0 -59223-3 0  9997
2 40920  82.4903  97.6829 0011105  55.6456 304.5673 12.42925488483269
COSMOS 2508 (RODNIK-S *)
1 40921U 15050B   26139.28944884  .00000018  00000+0  55969-4 0  9991
2 40921  82.4857  96.1770 0015539  85.6044 274.6810 12.42913040483258
COSMOS 2509 (RODNIK-S *)
1 40922U 15050C   26139.30906941  .00000003  00000+0 -50106-4 0  9990
2 40922  82.4864  96.2640 0015744 101.5261 258.7588 12.42882634483294
LINGQIAO VIDEO A        
1 40959U 15057B   26139.30578488  .00000638  00000+0  96358-4 0  9990
2 40959  97.6616 135.5347 0017111   9.0837 351.0680 14.77348903571147
LINGQIAO VIDEO B        
1 40960U 15057C   26139.28453205  .00000521  00000+0  79814-4 0  9997
2 40960  97.6582 136.6859 0017232   9.1829 350.9694 14.77452955571187
JILIN-1                 
1 40961U 15057D   26139.24320307  .00000463  00000+0  70556-4 0  9999
2 40961  97.6510 140.0489 0017007   3.4183 356.7142 14.78106269571331
FOX-1A (AO-85)          
1 40967U 15058D   26138.63672456  .00002064  00000+0  19406-3 0  9998
2 40967  64.7765  10.8054 0129201  68.1875 293.2924 14.90780838109167
SINOD-D 1               
1 40968U 15058E   26139.19543948  .00002718  00000+0  22633-3 0  9996
2 40968  64.7760 349.6876 0117746  64.7204 296.6056 14.95660609112320
ELEKTRO-L 2             
1 41105U 15074A   26139.16427838 -.00000119  00000+0  00000+0 0  9998
2 41105   6.6216  70.8687 0001534 255.7612 314.8480  1.00271714 38216
DAMPE                   
1 41173U 15078A   26139.27494713  .00000778  00000+0  28809-4 0  9997
2 41173  97.4560 144.6015 0012020 170.1955 189.9523 15.30704660580128
ORBCOMM FM114           
1 41179U 15081A   26139.28215814  .00000127  00000+0  63199-4 0  9990
2 41179  47.0031 138.6595 0001434  43.2553 316.8446 14.58821342553531
ORBCOMM FM110           
1 41182U 15081D   26139.27084669  .00000383  00000+0  11728-3 0  9999
2 41182  47.0003 138.1618 0003982 296.2680  63.7796 14.58828800553404
ORBCOMM FM112           
1 41184U 15081F   26138.48834940  .00000302  00000+0  10023-3 0  9996
2 41184  47.0002  50.6774 0002492  60.2081 299.9052 14.58854175554611
ORBCOMM FM113           
1 41185U 15081G   26139.14904889  .00000182  00000+0  74723-4 0  9995
2 41185  47.0017  47.9166 0001070  53.8354 306.2631 14.58822164554690
ORBCOMM FM108           
1 41187U 15081J   26138.90616009  .00000347  00000+0  10968-3 0  9997
2 41187  47.0058 320.6326 0001985  63.0108 297.0981 14.58825037555802
ORBCOMM FM117           
1 41188U 15081K   26138.87161405  .00000319  00000+0  10378-3 0  9993
2 41188  47.0021 319.4386 0002445  71.1486 288.9665 14.58822655555841
ORBCOMM FM116           
1 41189U 15081L   26139.12623860  .00000324  00000+0  10474-3 0  9994
2 41189  47.0032  48.0224 0002212 294.9837  65.0819 14.58832537554694
HORYU-4                 
1 41340U 16012D   26139.12551847  .00150174  00000+0  76965-3 0  9999
2 41340  30.9885 289.5778 0004567  77.6854 282.4315 15.79713853566193
ZIYUAN 3-02 (ZY 3-02)   
1 41556U 16033A   26139.31499497  .00003421  00000+0  15481-3 0  9992
2 41556  97.3837 215.6426 0013275  42.5739 317.6524 15.21493581553598
CARTOSAT-2C             
1 41599U 16040A   26139.27814598  .00002501  00000+0  12188-3 0  9994
2 41599  97.4498 199.6494 0008589 228.3597 131.6903 15.19234329549324
LAPAN-A3                
1 41603U 16040E   26139.27487373  .00002130  00000+0  69251-4 0  9999
2 41603  97.1488 136.3766 0012117 115.0299 245.2203 15.32905149550382
GAOFEN-3                
1 41727U 16049A   26139.29205317 -.00000149  00000+0 -32190-4 0  9995
2 41727  98.4013 147.5140 0000949  87.8626 272.2672 14.42210755514480
CAS-2T & KS-1Q          
1 41847U 16066G   26139.14969111  .00000693  00000+0  10698-3 0  9990
2 41847  98.3826 215.2153 0341367 217.5100 140.1828 14.44599136500602
YUNHAI-1 01             
1 41857U 16068A   26139.32315358  .00000029  00000+0  26709-4 0  9995
2 41857  98.5835 150.5983 0006514 113.2688 246.9182 14.32716904497695
RESOURCESAT-2A          
1 41877U 16074A   26139.28440529 -.00000267  00000+0 -10143-3 0  9998
2 41877  98.7532 213.0233 0002845 139.2253 220.9138 14.21605116490196
